OBJECT_NAME,OBJECT_ID,EPOCH,MEAN_MOTION,ECCENTRICITY,INCLINATION,RA_OF_ASC_NODE,ARG_OF_PERICENTER,MEAN_ANOMALY,EPHEMERIS_TYPE,CLASSIFICATION_TYPE,NORAD_CAT_ID,ELEMENT_SET_NO,REV_AT_EPOCH,BSTAR,MEAN_MOTION_DOT,MEAN_MOTION_DDOT
KAZEOSAT 2,2014-033A,2026-03-01T12:22:55.964064,14.85319955,.0007743,97.5492,265.7612,323.4537,36.6149,0,U,40010,999,63297,.10627E-3,.863E-5,0
HODOYOSHI-4,2014-033B,2026-03-01T12:09:51.471936,14.87806885,.0022654,97.5448,250.5358,305.0162,54.8929,0,U,40011,999,63279,.14215E-3,.1252E-4,0
DEIMOS-2,2014-033D,2026-03-01T12:30:42.327072,14.93365099,.000126,97.5997,298.7140,49.1573,310.9756,0,U,40013,999,62165,.21828E-3,.2235E-4,0
HODOYOSHI-3,2014-033F,2026-03-01T11:03:32.983488,14.85108881,.003271,97.6289,227.9214,351.8741,8.1940,0,U,40015,999,63163,.17486E-3,.1456E-4,0
SPOT 7,2014-034A,2026-03-01T12:18:55.350432,14.60850580,.0001254,98.0770,125.7268,99.7124,260.4219,0,U,40053,999,62141,.18035E-3,.836E-5,0
SKYSAT-B,2014-037D,2026-03-01T07:44:02.628960,14.87684836,.0004156,98.3712,13.2445,269.6779,90.3959,0,U,40072,999,62992,.23219E-3,.2054E-4,0
WORLDVIEW-3 (WV-3),2014-048A,2026-03-01T10:03:43.788384,14.84812252,.0000774,97.8650,136.7211,18.7408,341.3835,0,U,40115,999,62591,.14582E-3,.1185E-4,0
GAOFEN-2,2014-049A,2026-03-01T12:52:29.954784,14.80757685,.0006461,98.0249,124.7960,213.5816,146.4987,0,U,40118,999,62330,.17418E-3,.1288E-4,0
YAOGAN-21,2014-053A,2026-03-01T12:40:43.644288,15.24797132,.0010011,97.1638,105.4243,110.3531,249.8784,0,U,40143,999,63854,.41037E-3,.10129E-3,0
YAOGAN-22,2014-063A,2026-03-01T10:06:36.418176,13.15526710,.0006753,100.7521,209.9796,75.4871,284.6989,0,U,40275,999,54564,.73201E-4,-.19E-6,0
ASNARO,2014-070A,2026-03-01T11:52:24.156192,15.19587656,.000682,97.3532,139.4715,168.0290,192.1108,0,U,40298,999,62765,.73444E-3,.15594E-3,0
YAOGAN-24,2014-072A,2026-03-01T12:13:18.152832,14.76207471,.0012006,98.1285,197.0509,246.8980,113.0964,0,U,40310,999,60783,.11072E-3,.714E-5,0
CBERS 4,2014-079A,2026-03-01T11:42:29.999808,14.35410856,.0000941,98.3509,120.7639,52.1585,307.9686,0,U,40336,999,58850,.15048E-3,.39E-5,0
YAOGAN-26,2014-088A,2026-03-01T13:35:36.324960,15.42757002,.0007503,97.0658,63.6336,83.5741,276.6362,0,U,40362,999,62108,.32957E-3,.14347E-3,0
SMAP,2015-003A,2026-03-01T10:56:21.214176,14.63326381,.0001176,98.1310,69.0598,112.4740,247.6587,0,U,40376,999,59186,.14114E-3,.682E-5,0
KOMPSAT-3A,2015-014A,2026-03-01T12:23:51.469152,15.48246476,.0062699,97.6855,44.4934,207.2167,152.5792,0,U,40536,999,60512,.46516E-3,.26468E-3,0
SENTINEL-2A,2015-028A,2026-02-25T04:19:12.423360,14.30192923,.00543683,98.5024,132.8928,194.7437,165.2162,0,U,40697,999,55771,.76852184E-4,.159E-5,0
GAOFEN-8,2015-030A,2026-03-01T12:10:59.155968,15.42064522,.0009223,97.6927,247.7029,217.9352,142.1245,0,U,40701,999,59483,.75965E-3,.325E-3,0
CARBONITE 1 (CBNT-1),2015-032D,2026-03-01T12:37:18.063264,14.83173678,.0013329,97.6452,243.1431,289.9580,70.0198,0,U,40718,999,57338,.46908E-3,.3784E-4,0
YAOGAN-27,2015-040A,2026-03-01T12:50:24.863136,13.16065490,.0008863,100.1092,51.6222,101.6150,258.5959,0,U,40878,999,50350,-.2556E-3,-.139E-5,0
GAOFEN-9 01,2015-047A,2026-03-01T13:30:55.970784,14.82657308,.0028584,97.6432,101.0850,131.3180,229.0501,0,U,40894,999,56424,.17132E-3,.1339E-4,0
YAOGAN-28,2015-064A,2026-03-01T12:05:38.794272,15.25825649,.0010587,97.2879,201.1895,205.7606,154.3107,0,U,41026,999,57425,.34655E-3,.8809E-4,0
YAOGAN-29,2015-069A,2026-03-01T13:30:30.190752,14.82985172,.0002368,98.0159,88.9706,49.9297,310.2123,0,U,41038,999,55467,.11455E-3,.876E-5,0
KENT RIDGE 1,2015-077B,2026-03-01T00:30:55.828800,15.22365417,.00083533,14.9808,349.9779,154.2838,205.7900,0,U,41167,999,56458,.18381135E-3,.5135E-4,0
GAOFEN-4,2015-083A,2026-03-01T11:14:05.538624,1.00270561,.0003687,0.3713,83.7669,87.5138,262.1855,0,U,41194,999,3744,0,-.353E-5,0
JASON-3,2016-002A,2026-03-01T10:18:56.281248,12.87628024,.0007856,66.0448,352.3853,276.7381,83.2744,0,U,41240,999,47337,.89439E-4,-.4E-6,0
SENTINEL-3A,2016-011A,2026-03-01T10:14:44.034720,14.26738377,.0001239,98.6246,129.3334,101.2995,258.8324,0,U,41335,999,52269,.7851E-4,.146E-5,0
ZIYUAN 3-02 (ZY 3-02),2016-033A,2026-03-01T12:27:41.637888,15.21412428,.0011508,97.3921,138.3216,330.8910,29.1683,0,U,41556,999,54161,.34374E-3,.766E-4,0
CARTOSAT-2C,2016-040A,2026-03-01T12:06:16.062912,15.19274466,.0010198,97.4633,121.8878,148.9163,211.2677,0,U,41599,999,53736,.41261E-3,.8649E-4,0
SKYSAT-C1,2016-040C,2026-03-01T00:39:22.989888,15.34300355,.00041391,96.9717,97.6732,70.9612,289.2081,0,U,41601,999,54127,.31298187E-3,.10326E-3,0
LAPAN-A3,2016-040E,2026-03-01T12:51:26.990784,15.32292069,.0011926,97.1471,60.2908,49.2153,311.0122,0,U,41603,999,53832,.15189E-3,.467E-4,0
