KAZEOSAT 2              
1 40010U 14033A   26060.51592551  .00000863  00000+0  10627-3 0  9998
2 40010  97.5492 265.7612 0007743 323.4537  36.6149 14.85319955632976
HODOYOSHI-4             
1 40011U 14033B   26060.50684574  .00001252  00000+0  14215-3 0  9995
2 40011  97.5448 250.5358 0022654 305.0162  54.8929 14.87806885632798
DEIMOS-2                
1 40013U 14033D   26060.52132323  .00002235  00000+0  21828-3 0  9999
2 40013  97.5997 298.7140 0001260  49.1573 310.9756 14.93365099621655
HODOYOSHI-3             
1 40015U 14033F   26060.46079842  .00001456  00000+0  17486-3 0  9999
2 40015  97.6289 227.9214 0032710 351.8741   8.1940 14.85108881631637
SPOT 7                  
1 40053U 14034A   26060.51314063  .00000836  00000+0  18035-3 0  9997
2 40053  98.0770 125.7268 0001254  99.7124 260.4219 14.60850580621415
SKYSAT-B                
1 40072U 14037D   26060.32225265  .00002054  00000+0  23219-3 0  9999
2 40072  98.3712  13.2445 0004156 269.6779  90.3959 14.87684836629924
WORLDVIEW-3 (WV-3)      
1 40115U 14048A   26060.41925681  .00001185  00000+0  14582-3 0  9995
2 40115  97.8650 136.7211 0000774  18.7408 341.3835 14.84812252625912
GAOFEN-2                
1 40118U 14049A   26060.53645781  .00001288  00000+0  17418-3 0  9997
2 40118  98.0249 124.7960 0006461 213.5816 146.4987 14.80757685623304
YAOGAN-21               
1 40143U 14053A   26060.52828292  .00010129  00000+0  41037-3 0  9997
2 40143  97.1638 105.4243 0010011 110.3531 249.8784 15.24797132638543
YAOGAN-22               
1 40275U 14063A   26060.42125484 -.00000019  00000+0  73201-4 0  9993
2 40275 100.7521 209.9796 0006753  75.4871 284.6989 13.15526710545642
ASNARO                  
1 40298U 14070A   26060.49472403  .00015594  00000+0  73444-3 0  9990
2 40298  97.3532 139.4715 0006820 168.0290 192.1108 15.19587656627657
YAOGAN-24               
1 40310U 14072A   26060.50923788  .00000714  00000+0  11072-3 0  9993
2 40310  98.1285 197.0509 0012006 246.8980 113.0964 14.76207471607837
CBERS 4                 
1 40336U 14079A   26060.48784722  .00000390  00000+0  15048-3 0  9995
2 40336  98.3509 120.7639 0000941  52.1585 307.9686 14.35410856588502
YAOGAN-26               
1 40362U 14088A   26060.56639265  .00014347  00000+0  32957-3 0  9999
2 40362  97.0658  63.6336 0007503  83.5741 276.6362 15.42757002621084
SMAP                    
1 40376U 15003A   26060.45580109  .00000682  00000+0  14114-3 0  9994
2 40376  98.1310  69.0598 0001176 112.4740 247.6587 14.63326381591860
KOMPSAT-3A              
1 40536U 15014A   26060.51656793  .00026468  00000+0  46516-3 0  9995
2 40536  97.6855  44.4934 0062699 207.2167 152.5792 15.48246476605127
SENTINEL-2A             
1 40697U 15028A   26056.18000490  .00000159  00000+0  76852-4 0  9999
2 40697  98.5024 132.8928 0054368 194.7437 165.2162 14.30192923557712
GAOFEN-8                
1 40701U 15030A   26060.50762912  .00032500  00000+0  75965-3 0  9991
2 40701  97.6927 247.7029 0009223 217.9352 142.1245 15.42064522594839
CARBONITE 1 (CBNT-1)    
1 40718U 15032D   26060.52590351  .00003784  00000+0  46908-3 0  9996
2 40718  97.6452 243.1431 0013329 289.9580  70.0198 14.83173678573381
YAOGAN-27               
1 40878U 15040A   26060.53500999 -.00000139  00000+0 -25560-3 0  9996
2 40878 100.1092  51.6222 0008863 101.6150 258.5959 13.16065490503500
GAOFEN-9 01             
1 40894U 15047A   26060.56314781  .00001339  00000+0  17132-3 0  9993
2 40894  97.6432 101.0850 0028584 131.3180 229.0501 14.82657308564241
YAOGAN-28               
1 41026U 15064A   26060.50392123  .00008809  00000+0  34655-3 0  9998
2 41026  97.2879 201.1895 0010587 205.7606 154.3107 15.25825649574251
YAOGAN-29               
1 41038U 15069A   26060.56284943  .00000876  00000+0  11455-3 0  9991
2 41038  98.0159  88.9706 0002368  49.9297 310.2123 14.82985172554673
KENT RIDGE 1            
1 41167U 15077B   26060.02147950  .00005135  00000+0  18381-3 0  9998
2 41167  14.9808 349.9779 0008353 154.2838 205.7900 15.22365417564586
GAOFEN-4                
1 41194U 15083A   26060.46811966 -.00000353  00000+0  00000+0 0  9991
2 41194   0.3713  83.7669 0003687  87.5138 262.1855  1.00270561 37449
JASON-3                 
1 41240U 16002A   26060.42981807 -.00000040  00000+0  89439-4 0  9994
2 41240  66.0448 352.3853 0007856 276.7381  83.2744 12.87628024473372
SENTINEL-3A             
1 41335U 16011A   26060.42689855  .00000146  00000+0  78510-4 0  9991
2 41335  98.6246 129.3334 0001239 101.2995 258.8324 14.26738377522694
ZIYUAN 3-02 (ZY 3-02)   
1 41556U 16033A   26060.51923192  .00007660  00000+0  34374-3 0  9992
2 41556  97.3921 138.3216 0011508 330.8910  29.1683 15.21412428541613
CARTOSAT-2C             
1 41599U 16040A   26060.50435258  .00008649  00000+0  41261-3 0  9998
2 41599  97.4633 121.8878 0010198 148.9163 211.2677 15.19274466537363
SKYSAT-C1               
1 41601U 16040C   26060.02734942  .00010326  00000+0  31298-3 0  9995
2 41601  96.9717  97.6732 0004139  70.9612 289.2081 15.34300355541277
LAPAN-A3                
1 41603U 16040E   26060.53572906  .00004670  00000+0  15189-3 0  9999
2 41603  97.1471  60.2908 0011926  49.2153 311.0122 15.32292069538323
